[{"OBJECT_NAME":"FLOCK 4G-15","OBJECT_ID":"2025-009BX","EPOCH":"2026-03-09T17:13:37.807680","MEAN_MOTION":15.27266411,"ECCENTRICITY":0.00036988,"INCLINATION":97.4054,"RA_OF_ASC_NODE":151.1927,"ARG_OF_PERICENTER":316.8208,"MEAN_ANOMALY":43.274,"EPHEMERIS_TYPE":0,"CLASSIFICATION_TYPE":"U","NORAD_CAT_ID":62678,"ELEMENT_SET_NO":999,"REV_AT_EPOCH":12135,"BSTAR":0.00047574812,"MEAN_MOTION_DOT":0.00012647,"MEAN_MOTION_DDOT":0},{"OBJECT_NAME":"STARLINK-34009","OBJECT_ID":"2025-093P","EPOCH":"2026-03-09T04:39:18.090432","MEAN_MOTION":15.27586801,"ECCENTRICITY":0.00013736,"INCLINATION":43.0018,"RA_OF_ASC_NODE":77.4691,"ARG_OF_PERICENTER":265.964,"MEAN_ANOMALY":94.1055,"EPHEMERIS_TYPE":0,"CLASSIFICATION_TYPE":"U","NORAD_CAT_ID":63849,"ELEMENT_SET_NO":999,"REV_AT_EPOCH":4793,"BSTAR":0.0014257229,"MEAN_MOTION_DOT":0.00039188,"MEAN_MOTION_DDOT":0}]
